STARLINK-31586          
1 59205U 24046E   26068.51876872  .00000697  00000+0  35675-4 0  9994
2 59205  53.1600 156.1146 0000993  99.6292 260.4821 15.30192497113021
HAWK-11C                
1 62381U 24247E   26068.51221537  .00009223  00000+0  33290-3 0  9992
2 62381  45.0045 114.8762 0005900 329.7040  30.3502 15.28848020 67743
